; Generated by WAAM Slicer MVP
G21
G90

; layer=0 path=0 offset=0
G0 Z6.5000 F2500.0
G0 X0.0000 Y0.0000 F2500.0
G0 Z1.5000 F2500.0
ARC_ON
G4 P500
G1 X0.0000 Y30.0000 Z1.5000 F400.0
G1 X50.0000 Y30.0000 Z1.5000 F400.0
G1 X50.0000 Y0.0000 Z1.5000 F400.0
G1 X0.0000 Y0.0000 Z1.5000 F400.0
ARC_OFF
G4 P300
G0 Z6.5000 F2500.0

; layer=0 path=1 offset=1
G0 Z6.5000 F2500.0
G0 X2.9480 Y2.9480 F2500.0
G0 Z1.5000 F2500.0
ARC_ON
G4 P500
G1 X2.9480 Y27.0520 Z1.5000 F400.0
G1 X47.0520 Y27.0520 Z1.5000 F400.0
G1 X47.0520 Y2.9480 Z1.5000 F400.0
G1 X2.9480 Y2.9480 Z1.5000 F400.0
ARC_OFF
G4 P300
G0 Z6.5000 F2500.0

; layer=0 path=2 offset=2
G0 Z6.5000 F2500.0
G0 X5.8960 Y5.8960 F2500.0
G0 Z1.5000 F2500.0
ARC_ON
G4 P500
G1 X5.8960 Y24.1040 Z1.5000 F400.0
G1 X44.1040 Y24.1040 Z1.5000 F400.0
G1 X44.1040 Y5.8960 Z1.5000 F400.0
G1 X5.8960 Y5.8960 Z1.5000 F400.0
ARC_OFF
G4 P300
G0 Z6.5000 F2500.0

; layer=0 path=3 offset=3
G0 Z6.5000 F2500.0
G0 X8.8440 Y8.8440 F2500.0
G0 Z1.5000 F2500.0
ARC_ON
G4 P500
G1 X8.8440 Y21.1560 Z1.5000 F400.0
G1 X41.1560 Y21.1560 Z1.5000 F400.0
G1 X41.1560 Y8.8440 Z1.5000 F400.0
G1 X8.8440 Y8.8440 Z1.5000 F400.0
ARC_OFF
G4 P300
G0 Z6.5000 F2500.0

; layer=0 path=4 offset=4
G0 Z6.5000 F2500.0
G0 X11.7920 Y11.7920 F2500.0
G0 Z1.5000 F2500.0
ARC_ON
G4 P500
G1 X11.7920 Y18.2080 Z1.5000 F400.0
G1 X38.2080 Y18.2080 Z1.5000 F400.0
G1 X38.2080 Y11.7920 Z1.5000 F400.0
G1 X11.7920 Y11.7920 Z1.5000 F400.0
ARC_OFF
G4 P300
G0 Z6.5000 F2500.0

; layer=0 path=5 offset=5
G0 Z6.5000 F2500.0
G0 X14.7400 Y14.7400 F2500.0
G0 Z1.5000 F2500.0
ARC_ON
G4 P500
G1 X14.7400 Y15.2600 Z1.5000 F400.0
G1 X35.2600 Y15.2600 Z1.5000 F400.0
G1 X35.2600 Y14.7400 Z1.5000 F400.0
G1 X14.7400 Y14.7400 Z1.5000 F400.0
ARC_OFF
G4 P300
G0 Z6.5000 F2500.0

; layer=1 path=6 offset=0
G0 Z8.0000 F2500.0
G0 X0.0000 Y0.0000 F2500.0
G0 Z3.0000 F2500.0
ARC_ON
G4 P500
G1 X0.0000 Y30.0000 Z3.0000 F400.0
G1 X50.0000 Y30.0000 Z3.0000 F400.0
G1 X50.0000 Y0.0000 Z3.0000 F400.0
G1 X0.0000 Y0.0000 Z3.0000 F400.0
ARC_OFF
G4 P300
G0 Z8.0000 F2500.0

; layer=1 path=7 offset=1
G0 Z8.0000 F2500.0
G0 X2.9480 Y2.9480 F2500.0
G0 Z3.0000 F2500.0
ARC_ON
G4 P500
G1 X2.9480 Y27.0520 Z3.0000 F400.0
G1 X47.0520 Y27.0520 Z3.0000 F400.0
G1 X47.0520 Y2.9480 Z3.0000 F400.0
G1 X2.9480 Y2.9480 Z3.0000 F400.0
ARC_OFF
G4 P300
G0 Z8.0000 F2500.0

; layer=1 path=8 offset=2
G0 Z8.0000 F2500.0
G0 X5.8960 Y5.8960 F2500.0
G0 Z3.0000 F2500.0
ARC_ON
G4 P500
G1 X5.8960 Y24.1040 Z3.0000 F400.0
G1 X44.1040 Y24.1040 Z3.0000 F400.0
G1 X44.1040 Y5.8960 Z3.0000 F400.0
G1 X5.8960 Y5.8960 Z3.0000 F400.0
ARC_OFF
G4 P300
G0 Z8.0000 F2500.0

; layer=1 path=9 offset=3
G0 Z8.0000 F2500.0
G0 X8.8440 Y8.8440 F2500.0
G0 Z3.0000 F2500.0
ARC_ON
G4 P500
G1 X8.8440 Y21.1560 Z3.0000 F400.0
G1 X41.1560 Y21.1560 Z3.0000 F400.0
G1 X41.1560 Y8.8440 Z3.0000 F400.0
G1 X8.8440 Y8.8440 Z3.0000 F400.0
ARC_OFF
G4 P300
G0 Z8.0000 F2500.0

; layer=1 path=10 offset=4
G0 Z8.0000 F2500.0
G0 X11.7920 Y11.7920 F2500.0
G0 Z3.0000 F2500.0
ARC_ON
G4 P500
G1 X11.7920 Y18.2080 Z3.0000 F400.0
G1 X38.2080 Y18.2080 Z3.0000 F400.0
G1 X38.2080 Y11.7920 Z3.0000 F400.0
G1 X11.7920 Y11.7920 Z3.0000 F400.0
ARC_OFF
G4 P300
G0 Z8.0000 F2500.0

; layer=1 path=11 offset=5
G0 Z8.0000 F2500.0
G0 X14.7400 Y14.7400 F2500.0
G0 Z3.0000 F2500.0
ARC_ON
G4 P500
G1 X14.7400 Y15.2600 Z3.0000 F400.0
G1 X35.2600 Y15.2600 Z3.0000 F400.0
G1 X35.2600 Y14.7400 Z3.0000 F400.0
G1 X14.7400 Y14.7400 Z3.0000 F400.0
ARC_OFF
G4 P300
G0 Z8.0000 F2500.0

; layer=2 path=12 offset=0
G0 Z9.5000 F2500.0
G0 X0.0000 Y0.0000 F2500.0
G0 Z4.5000 F2500.0
ARC_ON
G4 P500
G1 X0.0000 Y30.0000 Z4.5000 F400.0
G1 X50.0000 Y30.0000 Z4.5000 F400.0
G1 X50.0000 Y0.0000 Z4.5000 F400.0
G1 X0.0000 Y0.0000 Z4.5000 F400.0
ARC_OFF
G4 P300
G0 Z9.5000 F2500.0

; layer=2 path=13 offset=1
G0 Z9.5000 F2500.0
G0 X2.9480 Y2.9480 F2500.0
G0 Z4.5000 F2500.0
ARC_ON
G4 P500
G1 X2.9480 Y27.0520 Z4.5000 F400.0
G1 X47.0520 Y27.0520 Z4.5000 F400.0
G1 X47.0520 Y2.9480 Z4.5000 F400.0
G1 X2.9480 Y2.9480 Z4.5000 F400.0
ARC_OFF
G4 P300
G0 Z9.5000 F2500.0

; layer=2 path=14 offset=2
G0 Z9.5000 F2500.0
G0 X5.8960 Y5.8960 F2500.0
G0 Z4.5000 F2500.0
ARC_ON
G4 P500
G1 X5.8960 Y24.1040 Z4.5000 F400.0
G1 X44.1040 Y24.1040 Z4.5000 F400.0
G1 X44.1040 Y5.8960 Z4.5000 F400.0
G1 X5.8960 Y5.8960 Z4.5000 F400.0
ARC_OFF
G4 P300
G0 Z9.5000 F2500.0

; layer=2 path=15 offset=3
G0 Z9.5000 F2500.0
G0 X8.8440 Y8.8440 F2500.0
G0 Z4.5000 F2500.0
ARC_ON
G4 P500
G1 X8.8440 Y21.1560 Z4.5000 F400.0
G1 X41.1560 Y21.1560 Z4.5000 F400.0
G1 X41.1560 Y8.8440 Z4.5000 F400.0
G1 X8.8440 Y8.8440 Z4.5000 F400.0
ARC_OFF
G4 P300
G0 Z9.5000 F2500.0

; layer=2 path=16 offset=4
G0 Z9.5000 F2500.0
G0 X11.7920 Y11.7920 F2500.0
G0 Z4.5000 F2500.0
ARC_ON
G4 P500
G1 X11.7920 Y18.2080 Z4.5000 F400.0
G1 X38.2080 Y18.2080 Z4.5000 F400.0
G1 X38.2080 Y11.7920 Z4.5000 F400.0
G1 X11.7920 Y11.7920 Z4.5000 F400.0
ARC_OFF
G4 P300
G0 Z9.5000 F2500.0

; layer=2 path=17 offset=5
G0 Z9.5000 F2500.0
G0 X14.7400 Y14.7400 F2500.0
G0 Z4.5000 F2500.0
ARC_ON
G4 P500
G1 X14.7400 Y15.2600 Z4.5000 F400.0
G1 X35.2600 Y15.2600 Z4.5000 F400.0
G1 X35.2600 Y14.7400 Z4.5000 F400.0
G1 X14.7400 Y14.7400 Z4.5000 F400.0
ARC_OFF
G4 P300
G0 Z9.5000 F2500.0

; layer=3 path=18 offset=0
G0 Z11.0000 F2500.0
G0 X0.0000 Y0.0000 F2500.0
G0 Z6.0000 F2500.0
ARC_ON
G4 P500
G1 X0.0000 Y30.0000 Z6.0000 F400.0
G1 X50.0000 Y30.0000 Z6.0000 F400.0
G1 X50.0000 Y0.0000 Z6.0000 F400.0
G1 X0.0000 Y0.0000 Z6.0000 F400.0
ARC_OFF
G4 P300
G0 Z11.0000 F2500.0

; layer=3 path=19 offset=1
G0 Z11.0000 F2500.0
G0 X2.9480 Y2.9480 F2500.0
G0 Z6.0000 F2500.0
ARC_ON
G4 P500
G1 X2.9480 Y27.0520 Z6.0000 F400.0
G1 X47.0520 Y27.0520 Z6.0000 F400.0
G1 X47.0520 Y2.9480 Z6.0000 F400.0
G1 X2.9480 Y2.9480 Z6.0000 F400.0
ARC_OFF
G4 P300
G0 Z11.0000 F2500.0

; layer=3 path=20 offset=2
G0 Z11.0000 F2500.0
G0 X5.8960 Y5.8960 F2500.0
G0 Z6.0000 F2500.0
ARC_ON
G4 P500
G1 X5.8960 Y24.1040 Z6.0000 F400.0
G1 X44.1040 Y24.1040 Z6.0000 F400.0
G1 X44.1040 Y5.8960 Z6.0000 F400.0
G1 X5.8960 Y5.8960 Z6.0000 F400.0
ARC_OFF
G4 P300
G0 Z11.0000 F2500.0

; layer=3 path=21 offset=3
G0 Z11.0000 F2500.0
G0 X8.8440 Y8.8440 F2500.0
G0 Z6.0000 F2500.0
ARC_ON
G4 P500
G1 X8.8440 Y21.1560 Z6.0000 F400.0
G1 X41.1560 Y21.1560 Z6.0000 F400.0
G1 X41.1560 Y8.8440 Z6.0000 F400.0
G1 X8.8440 Y8.8440 Z6.0000 F400.0
ARC_OFF
G4 P300
G0 Z11.0000 F2500.0

; layer=3 path=22 offset=4
G0 Z11.0000 F2500.0
G0 X11.7920 Y11.7920 F2500.0
G0 Z6.0000 F2500.0
ARC_ON
G4 P500
G1 X11.7920 Y18.2080 Z6.0000 F400.0
G1 X38.2080 Y18.2080 Z6.0000 F400.0
G1 X38.2080 Y11.7920 Z6.0000 F400.0
G1 X11.7920 Y11.7920 Z6.0000 F400.0
ARC_OFF
G4 P300
G0 Z11.0000 F2500.0

; layer=3 path=23 offset=5
G0 Z11.0000 F2500.0
G0 X14.7400 Y14.7400 F2500.0
G0 Z6.0000 F2500.0
ARC_ON
G4 P500
G1 X14.7400 Y15.2600 Z6.0000 F400.0
G1 X35.2600 Y15.2600 Z6.0000 F400.0
G1 X35.2600 Y14.7400 Z6.0000 F400.0
G1 X14.7400 Y14.7400 Z6.0000 F400.0
ARC_OFF
G4 P300
G0 Z11.0000 F2500.0

; layer=4 path=24 offset=0
G0 Z12.5000 F2500.0
G0 X0.0000 Y0.0000 F2500.0
G0 Z7.5000 F2500.0
ARC_ON
G4 P500
G1 X0.0000 Y30.0000 Z7.5000 F400.0
G1 X50.0000 Y30.0000 Z7.5000 F400.0
G1 X50.0000 Y0.0000 Z7.5000 F400.0
G1 X0.0000 Y0.0000 Z7.5000 F400.0
ARC_OFF
G4 P300
G0 Z12.5000 F2500.0

; layer=4 path=25 offset=1
G0 Z12.5000 F2500.0
G0 X2.9480 Y2.9480 F2500.0
G0 Z7.5000 F2500.0
ARC_ON
G4 P500
G1 X2.9480 Y27.0520 Z7.5000 F400.0
G1 X47.0520 Y27.0520 Z7.5000 F400.0
G1 X47.0520 Y2.9480 Z7.5000 F400.0
G1 X2.9480 Y2.9480 Z7.5000 F400.0
ARC_OFF
G4 P300
G0 Z12.5000 F2500.0

; layer=4 path=26 offset=2
G0 Z12.5000 F2500.0
G0 X5.8960 Y5.8960 F2500.0
G0 Z7.5000 F2500.0
ARC_ON
G4 P500
G1 X5.8960 Y24.1040 Z7.5000 F400.0
G1 X44.1040 Y24.1040 Z7.5000 F400.0
G1 X44.1040 Y5.8960 Z7.5000 F400.0
G1 X5.8960 Y5.8960 Z7.5000 F400.0
ARC_OFF
G4 P300
G0 Z12.5000 F2500.0

; layer=4 path=27 offset=3
G0 Z12.5000 F2500.0
G0 X8.8440 Y8.8440 F2500.0
G0 Z7.5000 F2500.0
ARC_ON
G4 P500
G1 X8.8440 Y21.1560 Z7.5000 F400.0
G1 X41.1560 Y21.1560 Z7.5000 F400.0
G1 X41.1560 Y8.8440 Z7.5000 F400.0
G1 X8.8440 Y8.8440 Z7.5000 F400.0
ARC_OFF
G4 P300
G0 Z12.5000 F2500.0

; layer=4 path=28 offset=4
G0 Z12.5000 F2500.0
G0 X11.7920 Y11.7920 F2500.0
G0 Z7.5000 F2500.0
ARC_ON
G4 P500
G1 X11.7920 Y18.2080 Z7.5000 F400.0
G1 X38.2080 Y18.2080 Z7.5000 F400.0
G1 X38.2080 Y11.7920 Z7.5000 F400.0
G1 X11.7920 Y11.7920 Z7.5000 F400.0
ARC_OFF
G4 P300
G0 Z12.5000 F2500.0

; layer=4 path=29 offset=5
G0 Z12.5000 F2500.0
G0 X14.7400 Y14.7400 F2500.0
G0 Z7.5000 F2500.0
ARC_ON
G4 P500
G1 X14.7400 Y15.2600 Z7.5000 F400.0
G1 X35.2600 Y15.2600 Z7.5000 F400.0
G1 X35.2600 Y14.7400 Z7.5000 F400.0
G1 X14.7400 Y14.7400 Z7.5000 F400.0
ARC_OFF
G4 P300
G0 Z12.5000 F2500.0

; layer=5 path=30 offset=0
G0 Z14.0000 F2500.0
G0 X0.0000 Y0.0000 F2500.0
G0 Z9.0000 F2500.0
ARC_ON
G4 P500
G1 X0.0000 Y30.0000 Z9.0000 F400.0
G1 X50.0000 Y30.0000 Z9.0000 F400.0
G1 X50.0000 Y0.0000 Z9.0000 F400.0
G1 X0.0000 Y0.0000 Z9.0000 F400.0
ARC_OFF
G4 P300
G0 Z14.0000 F2500.0

; layer=5 path=31 offset=1
G0 Z14.0000 F2500.0
G0 X2.9480 Y2.9480 F2500.0
G0 Z9.0000 F2500.0
ARC_ON
G4 P500
G1 X2.9480 Y27.0520 Z9.0000 F400.0
G1 X47.0520 Y27.0520 Z9.0000 F400.0
G1 X47.0520 Y2.9480 Z9.0000 F400.0
G1 X2.9480 Y2.9480 Z9.0000 F400.0
ARC_OFF
G4 P300
G0 Z14.0000 F2500.0

; layer=5 path=32 offset=2
G0 Z14.0000 F2500.0
G0 X5.8960 Y5.8960 F2500.0
G0 Z9.0000 F2500.0
ARC_ON
G4 P500
G1 X5.8960 Y24.1040 Z9.0000 F400.0
G1 X44.1040 Y24.1040 Z9.0000 F400.0
G1 X44.1040 Y5.8960 Z9.0000 F400.0
G1 X5.8960 Y5.8960 Z9.0000 F400.0
ARC_OFF
G4 P300
G0 Z14.0000 F2500.0

; layer=5 path=33 offset=3
G0 Z14.0000 F2500.0
G0 X8.8440 Y8.8440 F2500.0
G0 Z9.0000 F2500.0
ARC_ON
G4 P500
G1 X8.8440 Y21.1560 Z9.0000 F400.0
G1 X41.1560 Y21.1560 Z9.0000 F400.0
G1 X41.1560 Y8.8440 Z9.0000 F400.0
G1 X8.8440 Y8.8440 Z9.0000 F400.0
ARC_OFF
G4 P300
G0 Z14.0000 F2500.0

; layer=5 path=34 offset=4
G0 Z14.0000 F2500.0
G0 X11.7920 Y11.7920 F2500.0
G0 Z9.0000 F2500.0
ARC_ON
G4 P500
G1 X11.7920 Y18.2080 Z9.0000 F400.0
G1 X38.2080 Y18.2080 Z9.0000 F400.0
G1 X38.2080 Y11.7920 Z9.0000 F400.0
G1 X11.7920 Y11.7920 Z9.0000 F400.0
ARC_OFF
G4 P300
G0 Z14.0000 F2500.0

; layer=5 path=35 offset=5
G0 Z14.0000 F2500.0
G0 X14.7400 Y14.7400 F2500.0
G0 Z9.0000 F2500.0
ARC_ON
G4 P500
G1 X14.7400 Y15.2600 Z9.0000 F400.0
G1 X35.2600 Y15.2600 Z9.0000 F400.0
G1 X35.2600 Y14.7400 Z9.0000 F400.0
G1 X14.7400 Y14.7400 Z9.0000 F400.0
ARC_OFF
G4 P300
G0 Z14.0000 F2500.0

; layer=6 path=36 offset=0
G0 Z15.5000 F2500.0
G0 X0.0000 Y0.0000 F2500.0
G0 Z10.5000 F2500.0
ARC_ON
G4 P500
G1 X0.0000 Y30.0000 Z10.5000 F400.0
G1 X50.0000 Y30.0000 Z10.5000 F400.0
G1 X50.0000 Y0.0000 Z10.5000 F400.0
G1 X0.0000 Y0.0000 Z10.5000 F400.0
ARC_OFF
G4 P300
G0 Z15.5000 F2500.0

; layer=6 path=37 offset=1
G0 Z15.5000 F2500.0
G0 X2.9480 Y2.9480 F2500.0
G0 Z10.5000 F2500.0
ARC_ON
G4 P500
G1 X2.9480 Y27.0520 Z10.5000 F400.0
G1 X47.0520 Y27.0520 Z10.5000 F400.0
G1 X47.0520 Y2.9480 Z10.5000 F400.0
G1 X2.9480 Y2.9480 Z10.5000 F400.0
ARC_OFF
G4 P300
G0 Z15.5000 F2500.0

; layer=6 path=38 offset=2
G0 Z15.5000 F2500.0
G0 X5.8960 Y5.8960 F2500.0
G0 Z10.5000 F2500.0
ARC_ON
G4 P500
G1 X5.8960 Y24.1040 Z10.5000 F400.0
G1 X44.1040 Y24.1040 Z10.5000 F400.0
G1 X44.1040 Y5.8960 Z10.5000 F400.0
G1 X5.8960 Y5.8960 Z10.5000 F400.0
ARC_OFF
G4 P300
G0 Z15.5000 F2500.0

; layer=6 path=39 offset=3
G0 Z15.5000 F2500.0
G0 X8.8440 Y8.8440 F2500.0
G0 Z10.5000 F2500.0
ARC_ON
G4 P500
G1 X8.8440 Y21.1560 Z10.5000 F400.0
G1 X41.1560 Y21.1560 Z10.5000 F400.0
G1 X41.1560 Y8.8440 Z10.5000 F400.0
G1 X8.8440 Y8.8440 Z10.5000 F400.0
ARC_OFF
G4 P300
G0 Z15.5000 F2500.0

; layer=6 path=40 offset=4
G0 Z15.5000 F2500.0
G0 X11.7920 Y11.7920 F2500.0
G0 Z10.5000 F2500.0
ARC_ON
G4 P500
G1 X11.7920 Y18.2080 Z10.5000 F400.0
G1 X38.2080 Y18.2080 Z10.5000 F400.0
G1 X38.2080 Y11.7920 Z10.5000 F400.0
G1 X11.7920 Y11.7920 Z10.5000 F400.0
ARC_OFF
G4 P300
G0 Z15.5000 F2500.0

; layer=6 path=41 offset=5
G0 Z15.5000 F2500.0
G0 X14.7400 Y14.7400 F2500.0
G0 Z10.5000 F2500.0
ARC_ON
G4 P500
G1 X14.7400 Y15.2600 Z10.5000 F400.0
G1 X35.2600 Y15.2600 Z10.5000 F400.0
G1 X35.2600 Y14.7400 Z10.5000 F400.0
G1 X14.7400 Y14.7400 Z10.5000 F400.0
ARC_OFF
G4 P300
G0 Z15.5000 F2500.0

; layer=7 path=42 offset=0
G0 Z17.0000 F2500.0
G0 X0.0000 Y0.0000 F2500.0
G0 Z12.0000 F2500.0
ARC_ON
G4 P500
G1 X0.0000 Y30.0000 Z12.0000 F400.0
G1 X50.0000 Y30.0000 Z12.0000 F400.0
G1 X50.0000 Y0.0000 Z12.0000 F400.0
G1 X0.0000 Y0.0000 Z12.0000 F400.0
ARC_OFF
G4 P300
G0 Z17.0000 F2500.0

; layer=7 path=43 offset=1
G0 Z17.0000 F2500.0
G0 X2.9480 Y2.9480 F2500.0
G0 Z12.0000 F2500.0
ARC_ON
G4 P500
G1 X2.9480 Y27.0520 Z12.0000 F400.0
G1 X47.0520 Y27.0520 Z12.0000 F400.0
G1 X47.0520 Y2.9480 Z12.0000 F400.0
G1 X2.9480 Y2.9480 Z12.0000 F400.0
ARC_OFF
G4 P300
G0 Z17.0000 F2500.0

; layer=7 path=44 offset=2
G0 Z17.0000 F2500.0
G0 X5.8960 Y5.8960 F2500.0
G0 Z12.0000 F2500.0
ARC_ON
G4 P500
G1 X5.8960 Y24.1040 Z12.0000 F400.0
G1 X44.1040 Y24.1040 Z12.0000 F400.0
G1 X44.1040 Y5.8960 Z12.0000 F400.0
G1 X5.8960 Y5.8960 Z12.0000 F400.0
ARC_OFF
G4 P300
G0 Z17.0000 F2500.0

; layer=7 path=45 offset=3
G0 Z17.0000 F2500.0
G0 X8.8440 Y8.8440 F2500.0
G0 Z12.0000 F2500.0
ARC_ON
G4 P500
G1 X8.8440 Y21.1560 Z12.0000 F400.0
G1 X41.1560 Y21.1560 Z12.0000 F400.0
G1 X41.1560 Y8.8440 Z12.0000 F400.0
G1 X8.8440 Y8.8440 Z12.0000 F400.0
ARC_OFF
G4 P300
G0 Z17.0000 F2500.0

; layer=7 path=46 offset=4
G0 Z17.0000 F2500.0
G0 X11.7920 Y11.7920 F2500.0
G0 Z12.0000 F2500.0
ARC_ON
G4 P500
G1 X11.7920 Y18.2080 Z12.0000 F400.0
G1 X38.2080 Y18.2080 Z12.0000 F400.0
G1 X38.2080 Y11.7920 Z12.0000 F400.0
G1 X11.7920 Y11.7920 Z12.0000 F400.0
ARC_OFF
G4 P300
G0 Z17.0000 F2500.0

; layer=7 path=47 offset=5
G0 Z17.0000 F2500.0
G0 X14.7400 Y14.7400 F2500.0
G0 Z12.0000 F2500.0
ARC_ON
G4 P500
G1 X14.7400 Y15.2600 Z12.0000 F400.0
G1 X35.2600 Y15.2600 Z12.0000 F400.0
G1 X35.2600 Y14.7400 Z12.0000 F400.0
G1 X14.7400 Y14.7400 Z12.0000 F400.0
ARC_OFF
G4 P300
G0 Z17.0000 F2500.0

; layer=8 path=48 offset=0
G0 Z18.5000 F2500.0
G0 X0.0000 Y0.0000 F2500.0
G0 Z13.5000 F2500.0
ARC_ON
G4 P500
G1 X0.0000 Y30.0000 Z13.5000 F400.0
G1 X50.0000 Y30.0000 Z13.5000 F400.0
G1 X50.0000 Y0.0000 Z13.5000 F400.0
G1 X0.0000 Y0.0000 Z13.5000 F400.0
ARC_OFF
G4 P300
G0 Z18.5000 F2500.0

; layer=8 path=49 offset=1
G0 Z18.5000 F2500.0
G0 X2.9480 Y2.9480 F2500.0
G0 Z13.5000 F2500.0
ARC_ON
G4 P500
G1 X2.9480 Y27.0520 Z13.5000 F400.0
G1 X47.0520 Y27.0520 Z13.5000 F400.0
G1 X47.0520 Y2.9480 Z13.5000 F400.0
G1 X2.9480 Y2.9480 Z13.5000 F400.0
ARC_OFF
G4 P300
G0 Z18.5000 F2500.0

; layer=8 path=50 offset=2
G0 Z18.5000 F2500.0
G0 X5.8960 Y5.8960 F2500.0
G0 Z13.5000 F2500.0
ARC_ON
G4 P500
G1 X5.8960 Y24.1040 Z13.5000 F400.0
G1 X44.1040 Y24.1040 Z13.5000 F400.0
G1 X44.1040 Y5.8960 Z13.5000 F400.0
G1 X5.8960 Y5.8960 Z13.5000 F400.0
ARC_OFF
G4 P300
G0 Z18.5000 F2500.0

; layer=8 path=51 offset=3
G0 Z18.5000 F2500.0
G0 X8.8440 Y8.8440 F2500.0
G0 Z13.5000 F2500.0
ARC_ON
G4 P500
G1 X8.8440 Y21.1560 Z13.5000 F400.0
G1 X41.1560 Y21.1560 Z13.5000 F400.0
G1 X41.1560 Y8.8440 Z13.5000 F400.0
G1 X8.8440 Y8.8440 Z13.5000 F400.0
ARC_OFF
G4 P300
G0 Z18.5000 F2500.0

; layer=8 path=52 offset=4
G0 Z18.5000 F2500.0
G0 X11.7920 Y11.7920 F2500.0
G0 Z13.5000 F2500.0
ARC_ON
G4 P500
G1 X11.7920 Y18.2080 Z13.5000 F400.0
G1 X38.2080 Y18.2080 Z13.5000 F400.0
G1 X38.2080 Y11.7920 Z13.5000 F400.0
G1 X11.7920 Y11.7920 Z13.5000 F400.0
ARC_OFF
G4 P300
G0 Z18.5000 F2500.0

; layer=8 path=53 offset=5
G0 Z18.5000 F2500.0
G0 X14.7400 Y14.7400 F2500.0
G0 Z13.5000 F2500.0
ARC_ON
G4 P500
G1 X14.7400 Y15.2600 Z13.5000 F400.0
G1 X35.2600 Y15.2600 Z13.5000 F400.0
G1 X35.2600 Y14.7400 Z13.5000 F400.0
G1 X14.7400 Y14.7400 Z13.5000 F400.0
ARC_OFF
G4 P300
G0 Z18.5000 F2500.0

; layer=9 path=54 offset=0
G0 Z20.0000 F2500.0
G0 X0.0000 Y0.0000 F2500.0
G0 Z15.0000 F2500.0
ARC_ON
G4 P500
G1 X0.0000 Y30.0000 Z15.0000 F400.0
G1 X50.0000 Y30.0000 Z15.0000 F400.0
G1 X50.0000 Y0.0000 Z15.0000 F400.0
G1 X0.0000 Y0.0000 Z15.0000 F400.0
ARC_OFF
G4 P300
G0 Z20.0000 F2500.0

; layer=9 path=55 offset=1
G0 Z20.0000 F2500.0
G0 X2.9480 Y2.9480 F2500.0
G0 Z15.0000 F2500.0
ARC_ON
G4 P500
G1 X2.9480 Y27.0520 Z15.0000 F400.0
G1 X47.0520 Y27.0520 Z15.0000 F400.0
G1 X47.0520 Y2.9480 Z15.0000 F400.0
G1 X2.9480 Y2.9480 Z15.0000 F400.0
ARC_OFF
G4 P300
G0 Z20.0000 F2500.0

; layer=9 path=56 offset=2
G0 Z20.0000 F2500.0
G0 X5.8960 Y5.8960 F2500.0
G0 Z15.0000 F2500.0
ARC_ON
G4 P500
G1 X5.8960 Y24.1040 Z15.0000 F400.0
G1 X44.1040 Y24.1040 Z15.0000 F400.0
G1 X44.1040 Y5.8960 Z15.0000 F400.0
G1 X5.8960 Y5.8960 Z15.0000 F400.0
ARC_OFF
G4 P300
G0 Z20.0000 F2500.0

; layer=9 path=57 offset=3
G0 Z20.0000 F2500.0
G0 X8.8440 Y8.8440 F2500.0
G0 Z15.0000 F2500.0
ARC_ON
G4 P500
G1 X8.8440 Y21.1560 Z15.0000 F400.0
G1 X41.1560 Y21.1560 Z15.0000 F400.0
G1 X41.1560 Y8.8440 Z15.0000 F400.0
G1 X8.8440 Y8.8440 Z15.0000 F400.0
ARC_OFF
G4 P300
G0 Z20.0000 F2500.0

; layer=9 path=58 offset=4
G0 Z20.0000 F2500.0
G0 X11.7920 Y11.7920 F2500.0
G0 Z15.0000 F2500.0
ARC_ON
G4 P500
G1 X11.7920 Y18.2080 Z15.0000 F400.0
G1 X38.2080 Y18.2080 Z15.0000 F400.0
G1 X38.2080 Y11.7920 Z15.0000 F400.0
G1 X11.7920 Y11.7920 Z15.0000 F400.0
ARC_OFF
G4 P300
G0 Z20.0000 F2500.0

; layer=9 path=59 offset=5
G0 Z20.0000 F2500.0
G0 X14.7400 Y14.7400 F2500.0
G0 Z15.0000 F2500.0
ARC_ON
G4 P500
G1 X14.7400 Y15.2600 Z15.0000 F400.0
G1 X35.2600 Y15.2600 Z15.0000 F400.0
G1 X35.2600 Y14.7400 Z15.0000 F400.0
G1 X14.7400 Y14.7400 Z15.0000 F400.0
ARC_OFF
G4 P300
G0 Z20.0000 F2500.0

; layer=10 path=60 offset=0
G0 Z21.5000 F2500.0
G0 X0.0000 Y0.0000 F2500.0
G0 Z16.5000 F2500.0
ARC_ON
G4 P500
G1 X0.0000 Y30.0000 Z16.5000 F400.0
G1 X50.0000 Y30.0000 Z16.5000 F400.0
G1 X50.0000 Y0.0000 Z16.5000 F400.0
G1 X0.0000 Y0.0000 Z16.5000 F400.0
ARC_OFF
G4 P300
G0 Z21.5000 F2500.0

; layer=10 path=61 offset=1
G0 Z21.5000 F2500.0
G0 X2.9480 Y2.9480 F2500.0
G0 Z16.5000 F2500.0
ARC_ON
G4 P500
G1 X2.9480 Y27.0520 Z16.5000 F400.0
G1 X47.0520 Y27.0520 Z16.5000 F400.0
G1 X47.0520 Y2.9480 Z16.5000 F400.0
G1 X2.9480 Y2.9480 Z16.5000 F400.0
ARC_OFF
G4 P300
G0 Z21.5000 F2500.0

; layer=10 path=62 offset=2
G0 Z21.5000 F2500.0
G0 X5.8960 Y5.8960 F2500.0
G0 Z16.5000 F2500.0
ARC_ON
G4 P500
G1 X5.8960 Y24.1040 Z16.5000 F400.0
G1 X44.1040 Y24.1040 Z16.5000 F400.0
G1 X44.1040 Y5.8960 Z16.5000 F400.0
G1 X5.8960 Y5.8960 Z16.5000 F400.0
ARC_OFF
G4 P300
G0 Z21.5000 F2500.0

; layer=10 path=63 offset=3
G0 Z21.5000 F2500.0
G0 X8.8440 Y8.8440 F2500.0
G0 Z16.5000 F2500.0
ARC_ON
G4 P500
G1 X8.8440 Y21.1560 Z16.5000 F400.0
G1 X41.1560 Y21.1560 Z16.5000 F400.0
G1 X41.1560 Y8.8440 Z16.5000 F400.0
G1 X8.8440 Y8.8440 Z16.5000 F400.0
ARC_OFF
G4 P300
G0 Z21.5000 F2500.0

; layer=10 path=64 offset=4
G0 Z21.5000 F2500.0
G0 X11.7920 Y11.7920 F2500.0
G0 Z16.5000 F2500.0
ARC_ON
G4 P500
G1 X11.7920 Y18.2080 Z16.5000 F400.0
G1 X38.2080 Y18.2080 Z16.5000 F400.0
G1 X38.2080 Y11.7920 Z16.5000 F400.0
G1 X11.7920 Y11.7920 Z16.5000 F400.0
ARC_OFF
G4 P300
G0 Z21.5000 F2500.0

; layer=10 path=65 offset=5
G0 Z21.5000 F2500.0
G0 X14.7400 Y14.7400 F2500.0
G0 Z16.5000 F2500.0
ARC_ON
G4 P500
G1 X14.7400 Y15.2600 Z16.5000 F400.0
G1 X35.2600 Y15.2600 Z16.5000 F400.0
G1 X35.2600 Y14.7400 Z16.5000 F400.0
G1 X14.7400 Y14.7400 Z16.5000 F400.0
ARC_OFF
G4 P300
G0 Z21.5000 F2500.0

; layer=11 path=66 offset=0
G0 Z23.0000 F2500.0
G0 X0.0000 Y0.0000 F2500.0
G0 Z18.0000 F2500.0
ARC_ON
G4 P500
G1 X0.0000 Y30.0000 Z18.0000 F400.0
G1 X50.0000 Y30.0000 Z18.0000 F400.0
G1 X50.0000 Y0.0000 Z18.0000 F400.0
G1 X0.0000 Y0.0000 Z18.0000 F400.0
ARC_OFF
G4 P300
G0 Z23.0000 F2500.0

; layer=11 path=67 offset=1
G0 Z23.0000 F2500.0
G0 X2.9480 Y2.9480 F2500.0
G0 Z18.0000 F2500.0
ARC_ON
G4 P500
G1 X2.9480 Y27.0520 Z18.0000 F400.0
G1 X47.0520 Y27.0520 Z18.0000 F400.0
G1 X47.0520 Y2.9480 Z18.0000 F400.0
G1 X2.9480 Y2.9480 Z18.0000 F400.0
ARC_OFF
G4 P300
G0 Z23.0000 F2500.0

; layer=11 path=68 offset=2
G0 Z23.0000 F2500.0
G0 X5.8960 Y5.8960 F2500.0
G0 Z18.0000 F2500.0
ARC_ON
G4 P500
G1 X5.8960 Y24.1040 Z18.0000 F400.0
G1 X44.1040 Y24.1040 Z18.0000 F400.0
G1 X44.1040 Y5.8960 Z18.0000 F400.0
G1 X5.8960 Y5.8960 Z18.0000 F400.0
ARC_OFF
G4 P300
G0 Z23.0000 F2500.0

; layer=11 path=69 offset=3
G0 Z23.0000 F2500.0
G0 X8.8440 Y8.8440 F2500.0
G0 Z18.0000 F2500.0
ARC_ON
G4 P500
G1 X8.8440 Y21.1560 Z18.0000 F400.0
G1 X41.1560 Y21.1560 Z18.0000 F400.0
G1 X41.1560 Y8.8440 Z18.0000 F400.0
G1 X8.8440 Y8.8440 Z18.0000 F400.0
ARC_OFF
G4 P300
G0 Z23.0000 F2500.0

; layer=11 path=70 offset=4
G0 Z23.0000 F2500.0
G0 X11.7920 Y11.7920 F2500.0
G0 Z18.0000 F2500.0
ARC_ON
G4 P500
G1 X11.7920 Y18.2080 Z18.0000 F400.0
G1 X38.2080 Y18.2080 Z18.0000 F400.0
G1 X38.2080 Y11.7920 Z18.0000 F400.0
G1 X11.7920 Y11.7920 Z18.0000 F400.0
ARC_OFF
G4 P300
G0 Z23.0000 F2500.0

; layer=11 path=71 offset=5
G0 Z23.0000 F2500.0
G0 X14.7400 Y14.7400 F2500.0
G0 Z18.0000 F2500.0
ARC_ON
G4 P500
G1 X14.7400 Y15.2600 Z18.0000 F400.0
G1 X35.2600 Y15.2600 Z18.0000 F400.0
G1 X35.2600 Y14.7400 Z18.0000 F400.0
G1 X14.7400 Y14.7400 Z18.0000 F400.0
ARC_OFF
G4 P300
G0 Z23.0000 F2500.0

; layer=12 path=72 offset=0
G0 Z24.5000 F2500.0
G0 X0.0000 Y0.0000 F2500.0
G0 Z19.5000 F2500.0
ARC_ON
G4 P500
G1 X0.0000 Y30.0000 Z19.5000 F400.0
G1 X50.0000 Y30.0000 Z19.5000 F400.0
G1 X50.0000 Y0.0000 Z19.5000 F400.0
G1 X0.0000 Y0.0000 Z19.5000 F400.0
ARC_OFF
G4 P300
G0 Z24.5000 F2500.0

; layer=12 path=73 offset=1
G0 Z24.5000 F2500.0
G0 X2.9480 Y2.9480 F2500.0
G0 Z19.5000 F2500.0
ARC_ON
G4 P500
G1 X2.9480 Y27.0520 Z19.5000 F400.0
G1 X47.0520 Y27.0520 Z19.5000 F400.0
G1 X47.0520 Y2.9480 Z19.5000 F400.0
G1 X2.9480 Y2.9480 Z19.5000 F400.0
ARC_OFF
G4 P300
G0 Z24.5000 F2500.0

; layer=12 path=74 offset=2
G0 Z24.5000 F2500.0
G0 X5.8960 Y5.8960 F2500.0
G0 Z19.5000 F2500.0
ARC_ON
G4 P500
G1 X5.8960 Y24.1040 Z19.5000 F400.0
G1 X44.1040 Y24.1040 Z19.5000 F400.0
G1 X44.1040 Y5.8960 Z19.5000 F400.0
G1 X5.8960 Y5.8960 Z19.5000 F400.0
ARC_OFF
G4 P300
G0 Z24.5000 F2500.0

; layer=12 path=75 offset=3
G0 Z24.5000 F2500.0
G0 X8.8440 Y8.8440 F2500.0
G0 Z19.5000 F2500.0
ARC_ON
G4 P500
G1 X8.8440 Y21.1560 Z19.5000 F400.0
G1 X41.1560 Y21.1560 Z19.5000 F400.0
G1 X41.1560 Y8.8440 Z19.5000 F400.0
G1 X8.8440 Y8.8440 Z19.5000 F400.0
ARC_OFF
G4 P300
G0 Z24.5000 F2500.0

; layer=12 path=76 offset=4
G0 Z24.5000 F2500.0
G0 X11.7920 Y11.7920 F2500.0
G0 Z19.5000 F2500.0
ARC_ON
G4 P500
G1 X11.7920 Y18.2080 Z19.5000 F400.0
G1 X38.2080 Y18.2080 Z19.5000 F400.0
G1 X38.2080 Y11.7920 Z19.5000 F400.0
G1 X11.7920 Y11.7920 Z19.5000 F400.0
ARC_OFF
G4 P300
G0 Z24.5000 F2500.0

; layer=12 path=77 offset=5
G0 Z24.5000 F2500.0
G0 X14.7400 Y14.7400 F2500.0
G0 Z19.5000 F2500.0
ARC_ON
G4 P500
G1 X14.7400 Y15.2600 Z19.5000 F400.0
G1 X35.2600 Y15.2600 Z19.5000 F400.0
G1 X35.2600 Y14.7400 Z19.5000 F400.0
G1 X14.7400 Y14.7400 Z19.5000 F400.0
ARC_OFF
G4 P300
G0 Z24.5000 F2500.0

M2
